{
"type": "FeatureCollection",
"name": "aoi",
"crs": { "type": "name", "properties": { "name": "urn:ogc:def:crs:EPSG::32634" } },
"features": [
{ "type": "Feature", "properties": { "id": 1 }, "geometry": { "type": "Polygon", "coordinates": [ [ [ 617440.423750120447949, 5995489.612479680217803 ], [ 617440.423750120447949, 6003889.45208814740181 ], [ 630216.552740318933502, 6003889.45208814740181 ], [ 630216.552740318933502, 5995489.612479680217803 ], [ 617440.423750120447949, 5995489.612479680217803 ] ] ] } }
]
}
